COSMOS 1933             
1 18958U 88020A   26014.26612484  .00003071  00000+0  15196-3 0  9990
2 18958  82.5152 304.7365 0005654  46.0790 314.0909 15.17447764 41973
SL-3 R/B                
1 19046U 88032B   26014.60273931  .00003322  00000+0  15987-3 0  9997
2 19046  97.5108 358.1105 0028245  64.3313 296.0834 15.19135167 43891
SL-16 R/B               
1 19120U 88039B   26014.51251033  .00000117  00000+0  77875-4 0  9990
2 19120  71.0134 183.1035 0019784  60.0847 300.2240 14.19605121950696
COSMOS 1953             
1 19210U 88050A   26014.53160830  .00003824  00000+0  14127-3 0  9997
2 19210  82.5070 212.6659 0010878 320.7977  39.2473 15.27374733 29514
SL-8 R/B                
1 19257U 88053B   26014.56514022  .00000096  00000+0  39583-4 0  9992
2 19257  74.0453 212.2212 0019368  44.2749  14.8317 14.38879993968815
COSMOS 1975             
1 19573U 88093A   26014.48599185  .00004406  00000+0  16474-3 0  9993
2 19573  82.5198 172.0333 0011729   7.1606 352.9798 15.27005955 11137
SL-14 R/B               
1 19574U 88093B   26014.23932259  .00000358  00000+0  38493-4 0  9998
2 19574  82.5311  93.1692 0019854 214.8376 199.1122 14.85590967992959
SL-16 R/B               
1 19650U 88102B   26014.23335122  .00000261  00000+0  15576-3 0  9999
2 19650  70.9990 266.0758 0011999  94.7319 265.5175 14.16143312919188
INTERCOSMOS 24          
1 20261U 89080A   26014.39402386  .00000318  00000+0  84910-4 0  9991
2 20261  82.6078 139.7266 1188987  58.8102 312.4087 12.59486506659960
SL-14 R/B               
1 20262U 89080C   26014.54632538  .00000185  00000+0  55098-4 0  9990
2 20262  82.5912 207.9537 1229770 308.5998  41.1027 12.50438249653382
DELTA 1 R/B             
1 20323U 89089B   26014.54264178  .00000267  00000+0  75034-4 0  9991
2 20323  97.0736 230.5795 0067703 294.3916  65.0227 14.50605355887887
ARIANE 40 R/B           
1 20443U 90005H   26014.40130716  .00000181  00000+0  71095-4 0  9997
2 20443  98.3195  76.6491 0010223  15.0369 345.1121 14.39825679884994
