CCSDS_OMM_VERS = 2.0
CREATION_DATE  = 
ORIGINATOR     = 

OBJECT_NAME    = COSMOS 1933
OBJECT_ID      = 1988-020A
CENTER_NAME    = EARTH
REF_FRAME      = TEME
TIME_SYSTEM    = UTC
MEAN_ELEMENT_THEORY = SGP/SGP4

EPOCH          = 2026-01-14T06:23:13.186176
MEAN_MOTION    = 15.17447764
ECCENTRICITY   = .00056544
INCLINATION    = 82.5152
RA_OF_ASC_NODE = 304.7365
ARG_OF_PERICENTER = 46.0790
MEAN_ANOMALY   = 314.0909

EPHEMERIS_TYPE = 0
CLASSIFICATION_TYPE = U
NORAD_CAT_ID   = 18958
ELEMENT_SET_NO = 999
REV_AT_EPOCH   = 4197
BSTAR          = .15195956E-3
MEAN_MOTION_DOT = .3071E-4
MEAN_MOTION_DDOT = 0

CCSDS_OMM_VERS = 2.0
CREATION_DATE  = 
ORIGINATOR     = 

OBJECT_NAME    = SL-3 R/B
OBJECT_ID      = 1988-032B
CENTER_NAME    = EARTH
REF_FRAME      = TEME
TIME_SYSTEM    = UTC
MEAN_ELEMENT_THEORY = SGP/SGP4

EPOCH          = 2026-01-14T14:27:56.676384
MEAN_MOTION    = 15.19135167
ECCENTRICITY   = .00282456
INCLINATION    = 97.5108
RA_OF_ASC_NODE = 358.1105
ARG_OF_PERICENTER = 64.3313
MEAN_ANOMALY   = 296.0834

EPHEMERIS_TYPE = 0
CLASSIFICATION_TYPE = U
NORAD_CAT_ID   = 19046
ELEMENT_SET_NO = 999
REV_AT_EPOCH   = 4389
BSTAR          = .15986857E-3
MEAN_MOTION_DOT = .3322E-4
MEAN_MOTION_DDOT = 0

CCSDS_OMM_VERS = 2.0
CREATION_DATE  = 
ORIGINATOR     = 

OBJECT_NAME    = SL-16 R/B
OBJECT_ID      = 1988-039B
CENTER_NAME    = EARTH
REF_FRAME      = TEME
TIME_SYSTEM    = UTC
MEAN_ELEMENT_THEORY = SGP/SGP4

EPOCH          = 2026-01-14T12:18:00.892512
MEAN_MOTION    = 14.19605121
ECCENTRICITY   = .00197844
INCLINATION    = 71.0134
RA_OF_ASC_NODE = 183.1035
ARG_OF_PERICENTER = 60.0847
MEAN_ANOMALY   = 300.2240

EPHEMERIS_TYPE = 0
CLASSIFICATION_TYPE = U
NORAD_CAT_ID   = 19120
ELEMENT_SET_NO = 999
REV_AT_EPOCH   = 95069
BSTAR          = .77874722E-4
MEAN_MOTION_DOT = .117E-5
MEAN_MOTION_DDOT = 0

CCSDS_OMM_VERS = 2.0
CREATION_DATE  = 
ORIGINATOR     = 

OBJECT_NAME    = COSMOS 1953
OBJECT_ID      = 1988-050A
CENTER_NAME    = EARTH
REF_FRAME      = TEME
TIME_SYSTEM    = UTC
MEAN_ELEMENT_THEORY = SGP/SGP4

EPOCH          = 2026-01-14T12:45:30.957120
MEAN_MOTION    = 15.27374733
ECCENTRICITY   = .00108785
INCLINATION    = 82.5070
RA_OF_ASC_NODE = 212.6659
ARG_OF_PERICENTER = 320.7977
MEAN_ANOMALY   = 39.2473

EPHEMERIS_TYPE = 0
CLASSIFICATION_TYPE = U
NORAD_CAT_ID   = 19210
ELEMENT_SET_NO = 999
REV_AT_EPOCH   = 2951
BSTAR          = .14126758E-3
MEAN_MOTION_DOT = .3824E-4
MEAN_MOTION_DDOT = 0

CCSDS_OMM_VERS = 2.0
CREATION_DATE  = 
ORIGINATOR     = 

OBJECT_NAME    = SL-8 R/B
OBJECT_ID      = 1988-053B
CENTER_NAME    = EARTH
REF_FRAME      = TEME
TIME_SYSTEM    = UTC
MEAN_ELEMENT_THEORY = SGP/SGP4

EPOCH          = 2026-01-14T13:33:48.115008
MEAN_MOTION    = 14.38879993
ECCENTRICITY   = .0019368
INCLINATION    = 74.0453
RA_OF_ASC_NODE = 212.2212
ARG_OF_PERICENTER = 44.2749
MEAN_ANOMALY   = 14.8317

EPHEMERIS_TYPE = 0
CLASSIFICATION_TYPE = U
NORAD_CAT_ID   = 19257
ELEMENT_SET_NO = 999
REV_AT_EPOCH   = 96881
BSTAR          = .39583244E-4
MEAN_MOTION_DOT = .96E-6
MEAN_MOTION_DDOT = 0

CCSDS_OMM_VERS = 2.0
CREATION_DATE  = 
ORIGINATOR     = 

OBJECT_NAME    = COSMOS 1975
OBJECT_ID      = 1988-093A
CENTER_NAME    = EARTH
REF_FRAME      = TEME
TIME_SYSTEM    = UTC
MEAN_ELEMENT_THEORY = SGP/SGP4

EPOCH          = 2026-01-14T11:39:49.695840
MEAN_MOTION    = 15.27005955
ECCENTRICITY   = .00117294
INCLINATION    = 82.5198
RA_OF_ASC_NODE = 172.0333
ARG_OF_PERICENTER = 7.1606
MEAN_ANOMALY   = 352.9798

EPHEMERIS_TYPE = 0
CLASSIFICATION_TYPE = U
NORAD_CAT_ID   = 19573
ELEMENT_SET_NO = 999
REV_AT_EPOCH   = 1113
BSTAR          = .16473686E-3
MEAN_MOTION_DOT = .4406E-4
MEAN_MOTION_DDOT = 0

CCSDS_OMM_VERS = 2.0
CREATION_DATE  = 
ORIGINATOR     = 

OBJECT_NAME    = SL-14 R/B
OBJECT_ID      = 1988-093B
CENTER_NAME    = EARTH
REF_FRAME      = TEME
TIME_SYSTEM    = UTC
MEAN_ELEMENT_THEORY = SGP/SGP4

EPOCH          = 2026-01-14T05:44:37.471776
MEAN_MOTION    = 14.85590967
ECCENTRICITY   = .00198541
INCLINATION    = 82.5311
RA_OF_ASC_NODE = 93.1692
ARG_OF_PERICENTER = 214.8376
MEAN_ANOMALY   = 199.1122

EPHEMERIS_TYPE = 0
CLASSIFICATION_TYPE = U
NORAD_CAT_ID   = 19574
ELEMENT_SET_NO = 999
REV_AT_EPOCH   = 99295
BSTAR          = .38492821E-4
MEAN_MOTION_DOT = .358E-5
MEAN_MOTION_DDOT = 0

CCSDS_OMM_VERS = 2.0
CREATION_DATE  = 
ORIGINATOR     = 

OBJECT_NAME    = SL-16 R/B
OBJECT_ID      = 1988-102B
CENTER_NAME    = EARTH
REF_FRAME      = TEME
TIME_SYSTEM    = UTC
MEAN_ELEMENT_THEORY = SGP/SGP4

EPOCH          = 2026-01-14T05:36:01.545408
MEAN_MOTION    = 14.16143312
ECCENTRICITY   = .00119991
INCLINATION    = 70.9990
RA_OF_ASC_NODE = 266.0758
ARG_OF_PERICENTER = 94.7319
MEAN_ANOMALY   = 265.5175

EPHEMERIS_TYPE = 0
CLASSIFICATION_TYPE = U
NORAD_CAT_ID   = 19650
ELEMENT_SET_NO = 999
REV_AT_EPOCH   = 91918
BSTAR          = .15576207E-3
MEAN_MOTION_DOT = .261E-5
MEAN_MOTION_DDOT = 0

CCSDS_OMM_VERS = 2.0
CREATION_DATE  = 
ORIGINATOR     = 

OBJECT_NAME    = INTERCOSMOS 24
OBJECT_ID      = 1989-080A
CENTER_NAME    = EARTH
REF_FRAME      = TEME
TIME_SYSTEM    = UTC
MEAN_ELEMENT_THEORY = SGP/SGP4

EPOCH          = 2026-01-14T09:27:23.661504
MEAN_MOTION    = 12.59486506
ECCENTRICITY   = .11889876
INCLINATION    = 82.6078
RA_OF_ASC_NODE = 139.7266
ARG_OF_PERICENTER = 58.8102
MEAN_ANOMALY   = 312.4087

EPHEMERIS_TYPE = 0
CLASSIFICATION_TYPE = U
NORAD_CAT_ID   = 20261
ELEMENT_SET_NO = 999
REV_AT_EPOCH   = 65996
BSTAR          = .8491026E-4
MEAN_MOTION_DOT = .318E-5
MEAN_MOTION_DDOT = 0

CCSDS_OMM_VERS = 2.0
CREATION_DATE  = 
ORIGINATOR     = 

OBJECT_NAME    = SL-14 R/B
OBJECT_ID      = 1989-080C
CENTER_NAME    = EARTH
REF_FRAME      = TEME
TIME_SYSTEM    = UTC
MEAN_ELEMENT_THEORY = SGP/SGP4

EPOCH          = 2026-01-14T13:06:42.512832
MEAN_MOTION    = 12.50438249
ECCENTRICITY   = .122977
INCLINATION    = 82.5912
RA_OF_ASC_NODE = 207.9537
ARG_OF_PERICENTER = 308.5998
MEAN_ANOMALY   = 41.1027

EPHEMERIS_TYPE = 0
CLASSIFICATION_TYPE = U
NORAD_CAT_ID   = 20262
ELEMENT_SET_NO = 999
REV_AT_EPOCH   = 65338
BSTAR          = .55098342E-4
MEAN_MOTION_DOT = .185E-5
MEAN_MOTION_DDOT = 0

CCSDS_OMM_VERS = 2.0
CREATION_DATE  = 
ORIGINATOR     = 

OBJECT_NAME    = DELTA 1 R/B
OBJECT_ID      = 1989-089B
CENTER_NAME    = EARTH
REF_FRAME      = TEME
TIME_SYSTEM    = UTC
MEAN_ELEMENT_THEORY = SGP/SGP4

EPOCH          = 2026-01-14T13:01:24.249792
MEAN_MOTION    = 14.50605355
ECCENTRICITY   = .00677036
INCLINATION    = 97.0736
RA_OF_ASC_NODE = 230.5795
ARG_OF_PERICENTER = 294.3916
MEAN_ANOMALY   = 65.0227

EPHEMERIS_TYPE = 0
CLASSIFICATION_TYPE = U
NORAD_CAT_ID   = 20323
ELEMENT_SET_NO = 999
REV_AT_EPOCH   = 88788
BSTAR          = .75034243E-4
MEAN_MOTION_DOT = .267E-5
MEAN_MOTION_DDOT = 0

CCSDS_OMM_VERS = 2.0
CREATION_DATE  = 
ORIGINATOR     = 

OBJECT_NAME    = ARIANE 40 R/B
OBJECT_ID      = 1990-005H
CENTER_NAME    = EARTH
REF_FRAME      = TEME
TIME_SYSTEM    = UTC
MEAN_ELEMENT_THEORY = SGP/SGP4

EPOCH          = 2026-01-14T09:37:52.938624
MEAN_MOTION    = 14.39825679
ECCENTRICITY   = .00102233
INCLINATION    = 98.3195
RA_OF_ASC_NODE = 76.6491
ARG_OF_PERICENTER = 15.0369
MEAN_ANOMALY   = 345.1121

EPHEMERIS_TYPE = 0
CLASSIFICATION_TYPE = U
NORAD_CAT_ID   = 20443
ELEMENT_SET_NO = 999
REV_AT_EPOCH   = 88499
BSTAR          = .71095392E-4
MEAN_MOTION_DOT = .181E-5
MEAN_MOTION_DDOT = 0

